start=new Date('2022-10-19T00:00:00.000Z').valueOf();
sats=[{"CENTER_NAME":"EARTH","MEAN_MOTION_DOT":"0.00018799","PERIOD":"95.438","OBJECT_TYPE":"PAYLOAD","NORAD_CAT_ID":"52998","INCLINATION":"53.2170","EPHEMERIS_TYPE":"0","EPOCH":"2022-10-18T22:00:00.999936","OBJECT_NAME":"STARLINK-4254","SEMIMAJOR_AXIS":"6917.921","SITE":"AFETR","TLE_LINE1":"1 52998U 22076N   22291.91667824  .00018799  00000-0  11965-2 0  9997","MEAN_ELEMENT_THEORY":"SGP4","REV_AT_EPOCH":"130","GP_ID":"215531158","TIME_SYSTEM":"UTC","BSTAR":"0.00119650000000","ECCENTRICITY":"0.00015030","LAUNCH_DATE":"2022-07-07","DECAY_DATE":null,"COUNTRY_CODE":"US","TLE_LINE2":"2 52998  53.2170 250.7064 0001503  64.9635 231.6716 15.08826839  1309","PERIAPSIS":"538.746","MEAN_ANOMALY":"231.6716","ARG_OF_PERICENTER":"64.9635","MEAN_MOTION":"15.08826839","FILE":"3621750","ELEMENT_SET_NO":"999","OBJECT_ID":"2022-076N","CLASSIFICATION_TYPE":"U","RA_OF_ASC_NODE":"250.7064","MEAN_MOTION_DDOT":"0.0000000000000","APOAPSIS":"540.825","RCS_SIZE":"LARGE","REF_FRAME":"TEME"},{"MEAN_MOTION_DOT":"-0.00012817","CENTER_NAME":"EARTH","PERIOD":"95.436","OBJECT_TYPE":"PAYLOAD","INCLINATION":"53.2156","NORAD_CAT_ID":"52999","EPOCH":"2022-10-18T22:00:00.999936","EPHEMERIS_TYPE":"0","OBJECT_NAME":"STARLINK-4217","SEMIMAJOR_AXIS":"6917.802","SITE":"AFETR","REV_AT_EPOCH":"130","MEAN_ELEMENT_THEORY":"SGP4","TLE_LINE1":"1 52999U 22076P   22291.91667824 -.00012817  00000-0 -78805-3 0  9992","TIME_SYSTEM":"UTC","GP_ID":"215530993","BSTAR":"-0.00078805000000","ECCENTRICITY":"0.00015380","LAUNCH_DATE":"2022-07-07","DECAY_DATE":null,"COUNTRY_CODE":"US","PERIAPSIS":"538.603","TLE_LINE2":"2 52999  53.2156 250.6844 0001538  71.2063 310.5254 15.08865705  1302","MEAN_ANOMALY":"310.5254","ARG_OF_PERICENTER":"71.2063","CLASSIFICATION_TYPE":"U","FILE":"3621750","ELEMENT_SET_NO":"999","OBJECT_ID":"2022-076P","MEAN_MOTION":"15.08865705","RA_OF_ASC_NODE":"250.6844","MEAN_MOTION_DDOT":"0.0000000000000","APOAPSIS":"540.731","RCS_SIZE":"LARGE","REF_FRAME":"TEME"},{"MEAN_MOTION_DOT":"0.00019135","CENTER_NAME":"EARTH","OBJECT_TYPE":"PAYLOAD","PERIOD":"95.438","INCLINATION":"53.2168","NORAD_CAT_ID":"53000","EPOCH":"2022-10-18T22:00:00.999936","EPHEMERIS_TYPE":"0","OBJECT_NAME":"STARLINK-4194","SEMIMAJOR_AXIS":"6917.901","SITE":"AFETR","REV_AT_EPOCH":"130","MEAN_ELEMENT_THEORY":"SGP4","TLE_LINE1":"1 53000U 22076Q   22291.91667824  .00019135  00000-0  12173-2 0  9999","TIME_SYSTEM":"UTC","GP_ID":"215531984","BSTAR":"0.00121730000000","ECCENTRICITY":"0.00020010","LAUNCH_DATE":"2022-07-07","DECAY_DATE":null,"COUNTRY_CODE":"US","PERIAPSIS":"538.382","TLE_LINE2":"2 53000  53.2168 250.7046 0002001  37.5173 264.2997 15.08833304  1306","MEAN_ANOMALY":"264.2997","ARG_OF_PERICENTER":"37.5173","CLASSIFICATION_TYPE":"U","MEAN_MOTION":"15.08833304","FILE":"3621750","ELEMENT_SET_NO":"999","OBJECT_ID":"2022-076Q","RA_OF_ASC_NODE":"250.7046","MEAN_MOTION_DDOT":"0.0000000000000","RCS_SIZE":"LARGE","APOAPSIS":"541.150","REF_FRAME":"TEME"},{"ECCENTRICITY":"0.00013970","LAUNCH_DATE":"2022-07-07","DECAY_DATE":null,"COUNTRY_CODE":"US","TLE_LINE2":"2 53001  53.2172 250.6842 0001397  69.4168 332.4139 15.08826160  1308","PERIAPSIS":"538.821","MEAN_ANOMALY":"332.4139","ARG_OF_PERICENTER":"69.4168","ELEMENT_SET_NO":"999","FILE":"3621750","MEAN_MOTION":"15.08826160","OBJECT_ID":"2022-076R","CLASSIFICATION_TYPE":"U","RA_OF_ASC_NODE":"250.6842","MEAN_MOTION_DDOT":"0.0000000000000","APOAPSIS":"540.754","RCS_SIZE":"LARGE","REF_FRAME":"TEME","CENTER_NAME":"EARTH","MEAN_MOTION_DOT":"0.00022580","PERIOD":"95.438","OBJECT_TYPE":"PAYLOAD","NORAD_CAT_ID":"53001","INCLINATION":"53.2172","EPHEMERIS_TYPE":"0","EPOCH":"2022-10-18T22:00:00.999936","OBJECT_NAME":"STARLINK-4190","SEMIMAJOR_AXIS":"6917.923","SITE":"AFETR","TLE_LINE1":"1 53001U 22076R   22291.91667824  .00022580  00000-0  14328-2 0  9992","MEAN_ELEMENT_THEORY":"SGP4","REV_AT_EPOCH":"130","GP_ID":"215530837","TIME_SYSTEM":"UTC","BSTAR":"0.00143280000000"},{"DECAY_DATE":null,"LAUNCH_DATE":"2022-07-07","ECCENTRICITY":"0.00018900","MEAN_ANOMALY":"278.8015","TLE_LINE2":"2 53002  53.2165 250.7020 0001890  42.9827 278.8015 15.08832715  1305","PERIAPSIS":"538.460","COUNTRY_CODE":"US","FILE":"3621750","OBJECT_ID":"2022-076S","ELEMENT_SET_NO":"999","MEAN_MOTION":"15.08832715","CLASSIFICATION_TYPE":"U","ARG_OF_PERICENTER":"42.9827","REF_FRAME":"TEME","RCS_SIZE":"LARGE","APOAPSIS":"541.075","MEAN_MOTION_DDOT":"0.0000000000000","RA_OF_ASC_NODE":"250.7020","PERIOD":"95.438","OBJECT_TYPE":"PAYLOAD","CENTER_NAME":"EARTH","MEAN_MOTION_DOT":"0.00019715","OBJECT_NAME":"STARLINK-4121","EPHEMERIS_TYPE":"0","EPOCH":"2022-10-18T22:00:00.999936","NORAD_CAT_ID":"53002","INCLINATION":"53.2165","SITE":"AFETR","SEMIMAJOR_AXIS":"6917.903","BSTAR":"0.00125360000000","GP_ID":"215531576","TIME_SYSTEM":"UTC","TLE_LINE1":"1 53002U 22076S   22291.91667824  .00019715  00000-0  12536-2 0  9998","MEAN_ELEMENT_THEORY":"SGP4","REV_AT_EPOCH":"130"},{"SITE":"AFETR","SEMIMAJOR_AXIS":"6917.926","BSTAR":"0.00137710000000","TIME_SYSTEM":"UTC","GP_ID":"215531411","MEAN_ELEMENT_THEORY":"SGP4","REV_AT_EPOCH":"130","TLE_LINE1":"1 53003U 22076T   22291.91667824  .00021688  00000-0  13771-2 0  9993","OBJECT_TYPE":"PAYLOAD","PERIOD":"95.438","MEAN_MOTION_DOT":"0.00021688","CENTER_NAME":"EARTH","OBJECT_NAME":"STARLINK-4255","EPOCH":"2022-10-18T22:00:00.999936","EPHEMERIS_TYPE":"0","INCLINATION":"53.2173","NORAD_CAT_ID":"53003","CLASSIFICATION_TYPE":"U","FILE":"3621750","ELEMENT_SET_NO":"999","MEAN_MOTION":"15.08825188","OBJECT_ID":"2022-076T","ARG_OF_PERICENTER":"69.6404","REF_FRAME":"TEME","APOAPSIS":"540.724","RCS_SIZE":"LARGE","MEAN_MOTION_DDOT":"0.0000000000000","RA_OF_ASC_NODE":"250.6826","DECAY_DATE":null,"LAUNCH_DATE":"2022-07-07","ECCENTRICITY":"0.00013490","MEAN_ANOMALY":"12.1810","PERIAPSIS":"538.857","TLE_LINE2":"2 53003  53.2173 250.6826 0001349  69.6404  12.1810 15.08825188  1302","COUNTRY_CODE":"US"},{"ECCENTRICITY":"0.00015080","DECAY_DATE":null,"LAUNCH_DATE":"2022-07-07","TLE_LINE2":"2 53004  53.2158 250.6902 0001508  72.7282 289.1002 15.08825638  1306","PERIAPSIS":"538.746","COUNTRY_CODE":"US","MEAN_ANOMALY":"289.1002","ARG_OF_PERICENTER":"72.7282","FILE":"3621750","ELEMENT_SET_NO":"999","MEAN_MOTION":"15.08825638","OBJECT_ID":"2022-076U","CLASSIFICATION_TYPE":"U","MEAN_MOTION_DDOT":"0.0000000000000","RA_OF_ASC_NODE":"250.6902","REF_FRAME":"TEME","RCS_SIZE":"LARGE","APOAPSIS":"540.833","MEAN_MOTION_DOT":"0.00021398","CENTER_NAME":"EARTH","OBJECT_TYPE":"PAYLOAD","PERIOD":"95.438","NORAD_CAT_ID":"53004","INCLINATION":"53.2158","OBJECT_NAME":"STARLINK-4253","EPHEMERIS_TYPE":"0","EPOCH":"2022-10-18T22:00:00.999936","SEMIMAJOR_AXIS":"6917.924","SITE":"AFETR","GP_ID":"215531743","TIME_SYSTEM":"UTC","TLE_LINE1":"1 53004U 22076U   22291.91667824  .00021398  00000-0  13590-2 0  9991","REV_AT_EPOCH":"130","MEAN_ELEMENT_THEORY":"SGP4","BSTAR":"0.00135900000000"},{"ECCENTRICITY":"0.00015090","DECAY_DATE":null,"LAUNCH_DATE":"2022-07-07","TLE_LINE2":"2 53005  53.2157 250.6822 0001509  68.9646  32.8722 15.08829477  1306","PERIAPSIS":"538.734","COUNTRY_CODE":"US","MEAN_ANOMALY":"32.8722","ARG_OF_PERICENTER":"68.9646","FILE":"3621750","ELEMENT_SET_NO":"999","OBJECT_ID":"2022-076V","MEAN_MOTION":"15.08829477","CLASSIFICATION_TYPE":"U","MEAN_MOTION_DDOT":"0.0000000000000","RA_OF_ASC_NODE":"250.6822","REF_FRAME":"TEME","RCS_SIZE":"LARGE","APOAPSIS":"540.821","MEAN_MOTION_DOT":"0.00022520","CENTER_NAME":"EARTH","PERIOD":"95.438","OBJECT_TYPE":"PAYLOAD","NORAD_CAT_ID":"53005","INCLINATION":"53.2157","OBJECT_NAME":"STARLINK-4288","EPHEMERIS_TYPE":"0","EPOCH":"2022-10-18T22:00:00.999936","SEMIMAJOR_AXIS":"6917.913","SITE":"AFETR","GP_ID":"215531255","TIME_SYSTEM":"UTC","TLE_LINE1":"1 53005U 22076V   22291.91667824  .00022520  00000-0  14289-2 0  9996","REV_AT_EPOCH":"130","MEAN_ELEMENT_THEORY":"SGP4","BSTAR":"0.00142890000000"},{"ARG_OF_PERICENTER":"56.0747","ELEMENT_SET_NO":"999","FILE":"3621750","OBJECT_ID":"2022-076W","MEAN_MOTION":"15.08827681","CLASSIFICATION_TYPE":"U","RA_OF_ASC_NODE":"250.6841","MEAN_MOTION_DDOT":"0.0000000000000","RCS_SIZE":"LARGE","APOAPSIS":"540.971","REF_FRAME":"TEME","ECCENTRICITY":"0.00017170","LAUNCH_DATE":"2022-07-07","DECAY_DATE":null,"COUNTRY_CODE":"US","TLE_LINE2":"2 53006  53.2176 250.6841 0001717  56.0747   5.7472 15.08827681  1306","PERIAPSIS":"538.595","MEAN_ANOMALY":"5.7472","SEMIMAJOR_AXIS":"6917.918","SITE":"AFETR","TLE_LINE1":"1 53006U 22076W   22291.91667824  .00023257  00000-0  14750-2 0  9998","REV_AT_EPOCH":"130","MEAN_ELEMENT_THEORY":"SGP4","GP_ID":"215531159","TIME_SYSTEM":"UTC","BSTAR":"0.00147500000000","MEAN_MOTION_DOT":"0.00023257","CENTER_NAME":"EARTH","OBJECT_TYPE":"PAYLOAD","PERIOD":"95.438","NORAD_CAT_ID":"53006","INCLINATION":"53.2176","EPHEMERIS_TYPE":"0","EPOCH":"2022-10-18T22:00:00.999936","OBJECT_NAME":"STARLINK-4290"},{"DECAY_DATE":null,"LAUNCH_DATE":"2022-07-07","ECCENTRICITY":"0.00016570","MEAN_ANOMALY":"77.3429","TLE_LINE2":"2 53007  53.2156 250.6829 0001657  64.4918  77.3429 15.08831440  1302","PERIAPSIS":"538.625","COUNTRY_CODE":"US","FILE":"3621750","ELEMENT_SET_NO":"999","OBJECT_ID":"2022-076X","MEAN_MOTION":"15.08831440","CLASSIFICATION_TYPE":"U","ARG_OF_PERICENTER":"64.4918","REF_FRAME":"TEME","RCS_SIZE":"LARGE","APOAPSIS":"540.918","MEAN_MOTION_DDOT":"0.0000000000000","RA_OF_ASC_NODE":"250.6829","PERIOD":"95.438","OBJECT_TYPE":"PAYLOAD","CENTER_NAME":"EARTH","MEAN_MOTION_DOT":"0.00020408","OBJECT_NAME":"STARLINK-4215","EPHEMERIS_TYPE":"0","EPOCH":"2022-10-18T22:00:00.999936","NORAD_CAT_ID":"53007","INCLINATION":"53.2156","SITE":"AFETR","SEMIMAJOR_AXIS":"6917.907","BSTAR":"0.00129690000000","GP_ID":"215530994","TIME_SYSTEM":"UTC","TLE_LINE1":"1 53007U 22076X   22291.91667824  .00020408  00000-0  12969-2 0  9994","MEAN_ELEMENT_THEORY":"SGP4","REV_AT_EPOCH":"130"}];
